OBJECT_NAME,OBJECT_ID,EPOCH,MEAN_MOTION,ECCENTRICITY,INCLINATION,RA_OF_ASC_NODE,ARG_OF_PERICENTER,MEAN_ANOMALY,EPHEMERIS_TYPE,CLASSIFICATION_TYPE,NORAD_CAT_ID,ELEMENT_SET_NO,REV_AT_EPOCH,BSTAR,MEAN_MOTION_DOT,MEAN_MOTION_DDOT
SKYSAT-C1,2016-040C,2026-07-13T14:12:15.632640,15.36730610,.00004367,96.9552,224.8854,340.2660,19.8569,0,U,41601,999,56192,.15152105E-3,.5361E-4,0
LAPAN-A3,2016-040E,2026-07-13T14:58:18.401376,15.33271469,.00082746,97.1503,189.9052,283.1864,76.8455,0,U,41603,999,55886,.61740935E-4,.1911E-4,0
GAOFEN-3,2016-049A,2026-07-13T14:04:20.887104,14.42218455,.00017852,98.4014,201.9737,85.6629,274.4765,0,U,41727,999,52245,.3066644E-5,-.33E-6,0
SKYSAT-C4,2016-058B,2026-07-12T14:11:16.089216,15.49378795,.0003375,96.9166,214.3113,121.6663,238.4919,0,U,41771,999,54940,.21392E-3,.11647E-3,0
SKYSAT-C5,2016-058C,2026-07-13T15:29:25.359360,15.33705753,.00023621,97.0457,234.1005,164.8572,195.2743,0,U,41772,999,54780,.13491324E-3,.4323E-4,0
SKYSAT-C2,2016-058D,2026-07-13T14:23:42.131616,15.42656231,.00017848,97.0164,215.7083,0.0746,0.0502,0,U,41773,999,54912,.17463033E-3,.7526E-4,0
SKYSAT-C3,2016-058E,2026-07-13T14:58:40.863648,15.53657678,.00024842,96.8988,224.4719,134.4789,225.6669,0,U,41774,999,55021,.24573357E-3,.15609E-3,0
ALSAT-1B,2016-059C,2026-07-13T14:38:06.982656,14.72294492,.00102006,97.7754,202.2332,134.2543,225.9504,0,U,41785,999,52446,.6457144E-4,.361E-5,0
PATHFINDER 1,2016-059E,2026-07-13T14:08:00.345696,14.67692047,.00297431,97.8176,192.6747,120.5907,239.8238,0,U,41787,999,52358,.58671077E-4,.289E-5,0
SCATSAT 1,2016-059H,2026-07-12T17:01:39.059904,14.79583421,.00550526,98.1179,257.7377,164.4981,195.7932,0,U,41790,999,10536,.9598631E-4,.68E-5,0
GOKTURK 1A,2016-073A,2026-07-13T15:35:17.887776,14.62791866,.00014279,98.1225,88.9057,79.6826,280.4537,0,U,41875,999,51269,.14205054E-4,.26E-6,0
RESOURCESAT-2A,2016-074A,2026-07-13T14:31:08.847264,14.21609890,.0002498,98.7527,267.8923,32.3627,327.7703,0,U,41877,999,49805,.22841783E-3,.457E-5,0
CARTOSAT-2D,2017-008A,2026-07-13T15:15:23.927904,15.19279561,.00058285,97.4099,253.4452,143.6363,216.5269,0,U,41948,999,52159,.15441647E-3,.319E-4,0
SENTINEL-2B,2017-013A,2026-07-13T15:23:08.580192,14.30815057,.0001222,98.5691,269.0413,89.6904,270.4419,0,U,42063,999,48842,.54954832E-4,.1E-5,0
CARTOSAT-2E,2017-036C,2026-07-13T15:40:56.490240,15.19246938,.00031104,97.4266,254.0174,194.2609,165.8538,0,U,42767,999,50216,.11589969E-3,.2375E-4,0
FORMOSAT-5,2017-049A,2026-07-13T12:49:59.506464,14.50907541,.00114431,98.2247,269.2583,8.9196,351.2200,0,U,42920,999,47049,.21324664E-4,.41E-6,0
SENTINEL-5P,2017-064A,2026-07-13T10:08:35.523168,14.19523105,.00011068,98.7929,136.3681,93.2481,266.8822,0,U,42969,999,45328,.20002618E-4,-.2E-7,0
SKYSAT-C11,2017-068A,2026-07-13T09:08:13.457184,15.59255142,.00010834,97.4370,344.3823,159.1653,200.9648,0,U,42987,999,48732,.24538513E-3,.19174E-3,0
SKYSAT-C10,2017-068B,2026-07-13T08:53:02.224896,15.35093384,.00014164,97.4530,331.4844,109.9399,250.1997,0,U,42988,999,48637,.18782841E-3,.6314E-4,0
SKYSAT-C9,2017-068C,2026-07-13T07:52:16.229568,15.42184723,.00088009,97.4449,332.6299,50.8893,309.3135,0,U,42989,999,48678,.18594349E-3,.7895E-4,0
SKYSAT-C8,2017-068D,2026-07-13T08:47:33.287136,15.37468653,.00012326,97.4547,331.3811,101.5997,258.5386,0,U,42990,999,48633,.17137262E-3,.6212E-4,0
SKYSAT-C7,2017-068E,2026-07-13T08:39:31.714272,15.37419702,.00058572,97.4558,332.3669,27.6632,332.4923,0,U,42991,999,48639,.16639118E-3,.6022E-4,0
SKYSAT-C6,2017-068F,2026-07-13T08:48:06.244416,15.34150157,.00051351,97.4596,332.2346,93.7527,266.4303,0,U,42992,999,48633,.16724959E-3,.5448E-4,0
CARTOSAT-2F,2018-004A,2026-07-13T14:52:59.525760,15.19266583,.0002617,97.4786,253.9945,138.9297,221.2135,0,U,43111,999,47134,.16575118E-3,.3426E-4,0
GAOFEN-1 02,2018-031A,2026-07-13T14:14:50.112384,14.76470595,.000157,98.0522,257.0450,297.5392,62.5658,0,U,43259,999,44659,.72046444E-4,.45E-5,0
GAOFEN-1 03,2018-031B,2026-07-13T15:20:52.298016,14.76461254,.00025295,98.0505,256.9463,19.8863,340.2445,0,U,43260,999,44659,.57147037E-4,.346E-5,0
GAOFEN-1 04,2018-031D,2026-07-13T14:45:53.710272,14.76472108,.00013931,98.0523,257.1163,57.0965,303.0378,0,U,43262,999,44658,.15101248E-3,.1E-4,0
SENTINEL-3B,2018-039A,2026-07-13T15:05:16.185984,14.26735917,.00011124,98.6237,261.7799,119.0203,241.1089,0,U,43437,999,42789,.11205971E-4,-.17E-6,0
GAOFEN-5 01,2018-043A,2026-07-13T12:06:32.533344,14.60622600,.00021846,98.4589,166.6462,35.6690,324.4655,0,U,43461,999,43553,.35912407E-4,.126E-5,0
GAOFEN-6,2018-048A,2026-07-13T15:18:14.307840,14.76383220,.0012152,98.0966,257.3358,86.1014,274.1584,0,U,43484,999,43729,.72348524E-4,.451E-5,0
