SKYSAT-C1               
1 41601U 16040C   26194.59184760  .00005361  00000+0  15152-3 0  9996
2 41601  96.9552 224.8854 0000436 340.2660  19.8569 15.36730610561920
LAPAN-A3                
1 41603U 16040E   26194.62382409  .00001911  00000+0  61741-4 0  9995
2 41603  97.1503 189.9052 0008274 283.1864  76.8455 15.33271469558866
GAOFEN-3                
1 41727U 16049A   26194.58635286 -.00000033  00000+0  30666-5 0  9998
2 41727  98.4014 201.9737 0001785  85.6629 274.4765 14.42218455522454
SKYSAT-C4               
1 41771U 16058B   26193.59115844  .00011647  00000+0  21392-3 0  9996
2 41771  96.9166 214.3113 0003375 121.6663 238.4919 15.49378795549403
SKYSAT-C5               
1 41772U 16058C   26194.64543240  .00004323  00000+0  13491-3 0  9993
2 41772  97.0457 234.1005 0002362 164.8572 195.2743 15.33705753547800
SKYSAT-C2               
1 41773U 16058D   26194.59979319  .00007526  00000+0  17463-3 0  9999
2 41773  97.0164 215.7083 0001784   0.0746   0.0502 15.42656231549127
SKYSAT-C3               
1 41774U 16058E   26194.62408407  .00015609  00000+0  24573-3 0  9990
2 41774  96.8988 224.4719 0002484 134.4789 225.6669 15.53657678550218
ALSAT-1B                
1 41785U 16059C   26194.60980304  .00000361  00000+0  64571-4 0  9994
2 41785  97.7754 202.2332 0010200 134.2543 225.9504 14.72294492524467
PATHFINDER 1            
1 41787U 16059E   26194.58889289  .00000289  00000+0  58671-4 0  9996
2 41787  97.8176 192.6747 0029743 120.5907 239.8238 14.67692047523586
SCATSAT 1               
1 41790U 16059H   26193.70947986  .00000680  00000+0  95986-4 0  9997
2 41790  98.1179 257.7377 0055052 164.4981 195.7932 14.79583421105361
GOKTURK 1A              
1 41875U 16073A   26194.64951259  .00000026  00000+0  14205-4 0  9998
2 41875  98.1225  88.9057 0001427  79.6826 280.4537 14.62791866512695
RESOURCESAT-2A          
1 41877U 16074A   26194.60496351  .00000457  00000+0  22842-3 0  9997
2 41877  98.7527 267.8923 0002498  32.3627 327.7703 14.21609890498055
CARTOSAT-2D             
1 41948U 17008A   26194.63569361  .00003190  00000+0  15442-3 0  9994
2 41948  97.4099 253.4452 0005828 143.6363 216.5269 15.19279561521599
SENTINEL-2B             
1 42063U 17013A   26194.64107153  .00000100  00000+0  54955-4 0  9998
2 42063  98.5691 269.0413 0001222  89.6904 270.4419 14.30815057488420
CARTOSAT-2E             
1 42767U 17036C   26194.65343160  .00002375  00000+0  11590-3 0  9998
2 42767  97.4266 254.0174 0003110 194.2609 165.8538 15.19246938502169
FORMOSAT-5              
1 42920U 17049A   26194.53471651  .00000041  00000+0  21325-4 0  9993
2 42920  98.2247 269.2583 0011443   8.9196 351.2200 14.50907541470495
SENTINEL-5P             
1 42969U 17064A   26194.42263337 -.00000002  00000+0  20003-4 0  9991
2 42969  98.7929 136.3681 0001106  93.2481 266.8822 14.19523105453286
SKYSAT-C11              
1 42987U 17068A   26194.38071131  .00019174  00000+0  24539-3 0  9995
2 42987  97.4370 344.3823 0001083 159.1653 200.9648 15.59255142487323
SKYSAT-C10              
1 42988U 17068B   26194.37016464  .00006314  00000+0  18783-3 0  9999
2 42988  97.4530 331.4844 0001416 109.9399 250.1997 15.35093384486372
SKYSAT-C9               
1 42989U 17068C   26194.32796562  .00007895  00000+0  18594-3 0  9994
2 42989  97.4449 332.6299 0008800  50.8893 309.3135 15.42184723486788
SKYSAT-C8               
1 42990U 17068D   26194.36635749  .00006212  00000+0  17137-3 0  9993
2 42990  97.4547 331.3811 0001232 101.5997 258.5386 15.37468653486331
SKYSAT-C7               
1 42991U 17068E   26194.36078373  .00006022  00000+0  16639-3 0  9993
2 42991  97.4558 332.3669 0005857  27.6632 332.4923 15.37419702486393
SKYSAT-C6               
1 42992U 17068F   26194.36673894  .00005448  00000+0  16725-3 0  9990
2 42992  97.4596 332.2346 0005135  93.7527 266.4303 15.34150157486338
CARTOSAT-2F             
1 43111U 18004A   26194.62013340  .00003426  00000+0  16575-3 0  9995
2 43111  97.4786 253.9945 0002617 138.9297 221.2135 15.19266583471346
GAOFEN-1 02             
1 43259U 18031A   26194.59363556  .00000450  00000+0  72046-4 0  9991
2 43259  98.0522 257.0450 0001570 297.5392  62.5658 14.76470595446592
GAOFEN-1 03             
1 43260U 18031B   26194.63949419  .00000346  00000+0  57147-4 0  9995
2 43260  98.0505 256.9463 0002529  19.8863 340.2445 14.76461254446592
GAOFEN-1 04             
1 43262U 18031D   26194.61520498  .00001000  00000+0  15101-3 0  9998
2 43262  98.0523 257.1163 0001393  57.0965 303.0378 14.76472108446580
SENTINEL-3B             
1 43437U 18039A   26194.62865956 -.00000017  00000+0  11206-4 0  9993
2 43437  98.6237 261.7799 0001112 119.0203 241.1089 14.26735917427890
GAOFEN-5 01             
1 43461U 18043A   26194.50454321  .00000126  00000+0  35912-4 0  9992
2 43461  98.4589 166.6462 0002184  35.6690 324.4655 14.60622600435534
GAOFEN-6                
1 43484U 18048A   26194.63766560  .00000451  00000+0  72349-4 0  9993
2 43484  98.0966 257.3358 0012152  86.1014 274.1584 14.76383220437299
